  m_PrefabInternal: {fileID: 100100000}
  m_GameObject: {fileID: 1525912582451526}
  m_Enabled: 1
  m_EditorHideFlags: 0
  m_Script: {fileID: 11500000, guid: 11e705904898e9e41b49ee058ee58850, type: 3}
  m_Name: 
  m_EditorClassIdentifier: 
  orbitMaterial: {fileID: 2100000, guid: 3f7446375ec57ca4abdd9781bcb5d89d, type: 2}
  orbitStepCount: 50
  pointOfInterestMarker: {fileID: 0}
  pointOfInterestAngle: 30
  snapPointOfInterestToPosition: 0
--- !u!114 &114537776373410944
MonoBehaviour:
  m_ObjectHideFlags: 1
  m_PrefabParentObject: {fileID: 0}
  m_PrefabInternal: {fileID: 100100000}
  m_GameObject: {fileID: 1833284077030254}
  m_Enabled: 1
  m_EditorHideFlags: 0
  m_Script: {fileID: 11500000, guid: 81f075d41bf2e0849b35226d49caa003, type: 3}
  m_Name: 
  m_EditorClassIdentifier: 
  Sun: {fileID: 0}
--- !u!114 &114555801437424490
MonoBehaviour:
  m_ObjectHideFlags: 1
  m_PrefabParentObject: {fileID: 0}
  m_PrefabInternal: {fileID: 100100000}
  m_GameObject: {fileID: 1021491538951256}
  m_Enabled: 1
  m_EditorHideFlags: 0
  m_Script: {fileID: 11500000, guid: a4f64a29bf435d449a300111aaeb58f8, type: 3}
  m_Name: 
  m_EditorClassIdentifier: 
  SemiMajorAxis: 0.02
  SemiMajorAxisReal: 57909070
  Eccentricity: 0
  EccentricityReal: 0.2056303
  ArgumentOfPerigee: 0
  Inclination: 0
  InclinationReal: 0.1222606
  RightAscensionOfAscendingNode: 0
  MeanAnomaly: 0
  Period: 87.9691
  PeriodReal: 87.9691
  Plane: 0
  TrueAnomaly: 0
  Epoch: 2451545
  Reality: 0
  RealitySemiMajorAxisScale: 4.2314006e-11
  Speed: 100
  SpeedMultiplier: 0.1
  TransitionSpeedMultiplier: 1
  MaxIterations: 20
--- !u!114 &114583957709028140
MonoBehaviour:
  m_ObjectHideFlags: 1
  m_PrefabParentObject: {fileID: 0}
  m_PrefabInternal: {fileID: 100100000}
  m_GameObject: {fileID: 1021491538951256}
  m_Enabled: 1
  m_EditorHideFlags: 0
  m_Script: {fileID: 11500000, guid: 4c2eeafa42b689a4aaec9a3be3cfef15, type: 3}
  m_Name: 
  m_EditorClassIdentifier: 
  VoiceCommands: []
  SelectionPOITarget: {fileID: 0}
--- !u!114 &114637198694105168
MonoBehaviour:
  m_ObjectHideFlags: 1
  m_PrefabParentObject: {fileID: 0}
  m_PrefabInternal: {fileID: 100100000}
  m_GameObject: {fileID: 1021491538951256}
  m_Enabled: 1
  m_EditorHideFlags: 0
  m_Script: {fileID: 11500000, guid: 6f892c269d3682144bd442e2a3391add, type: 3}
  m_Name: 
  m_EditorClassIdentifier: 
--- !u!114 &114726904582006088
MonoBehaviour:
  m_ObjectHideFlags: 1
  m_PrefabParentObject: {fileID: 0}
  m_PrefabInternal: {fileID: 100100000}
  m_GameObject: {fileID: 1020400550213814}
  m_Enabled: 1
  m_EditorHideFlags: 0
  m_Script: {fileID: 11500000, guid: c8725130c053f7541b9a408e493e9f91, type: 3}
  m_Name: 
  m_EditorClassIdentifier: 
  VoiceCommands: []
  pointOfInterest: {fileID: 0}
--- !u!114 &114791531370450322
MonoBehaviour:
  m_ObjectHideFlags: 1
  m_PrefabParentObject: {fileID: 0}
  m_PrefabInternal: {fileID: 100100000}
  m_GameObject: {fileID: 1087896704012422}
  m_Enabled: 1
  m_EditorHideFlags: 0
  m_Script: {fileID: 11500000, guid: 6d14ec0567e8de744b78308336c5fa34, type: 3}
  m_Name: 
  m_EditorClassIdentifier: 
  Sun: {fileID: 0}
--- !u!114 &114848792969896194
MonoBehaviour:
  m_ObjectHideFlags: 1
  m_PrefabParentObject: {fileID: 0}
  m_PrefabInternal: {fileID: 100100000}
  m_GameObject: {fileID: 1087896704012422}
  m_Enabled: 1
  m_EditorHideFlags: 0
  m_Script: {fileID: 11500000, guid: fdccc9cc3cb310b4392cc4c57c74c3c8, type: 3}
  m_Name: 
  m_EditorClassIdentifier: 
  rotationOffset: {x: 0, y: -90, z: 0}
  forceToWorldUp: 0
  forceCameraUp: 0
--- !u!135 &135723075045544000
SphereCollider:
  m_ObjectHideFlags: 1
  m_PrefabParentObject: {fileID: 0}
  m_PrefabInternal: {fileID: 100100000}
  m_GameObject: {fileID: 1120291351849596}
  m_Material: {fileID: 0}
  m_IsTrigger: 0
  m_Enabled: 1
  serializedVersion: 2
  m_Radius: 0.008565574
  m_Center: {x: 0.000000059604645, y: 0, z: 0}
--- !u!205 &205048766703205300
LODGroup:
  m_ObjectHideFlags: 1
  m_PrefabParentObject: {fileID: 0}
  m_PrefabInternal: {fileID: 100100000}
  m_GameObject: {fileID: 1021491538951256}
  serializedVersion: 2
  m_LocalReferencePoint: {x: -0.00000023830216, y: 0.00000021432061, z: 0.000001758337}
  m_Size: 0.0027587144
  m_FadeMode: 1
  m_AnimateCrossFading: 0
  m_LODs:
  - screenRelativeHeight: 0.027530862
    fadeTransitionWidth: 0
    renderers:
    - renderer: {fileID: 23041680571528320}
    - renderer: {fileID: 23885865577277940}
  - screenRelativeHeight: 0.0009895742
    fadeTransitionWidth: 0
    renderers:
    - renderer: {fileID: 23703868912933036}
  m_Enabled: 1
